[
    {
        "Altitude(m)": 702786.1797387432,
        "Argument of Periapsis(deg)": 0.005695060593313534,
        "Eccentricity": 0.0,
        "Inclination(deg)": 45.0,
        "Latitude(deg)": 7.451409586755478,
        "Longitude(deg)": -67.84628893671335,
        "Mean Anomaly(deg)": -190.5969916762596,
        "RAAN(deg)": 219.99462402927088,
        "Satellite Name": "Constellation 1 978",
        "Satellite Number": 978,
        "Semi-Major Axis(m)": 7083131.272910544,
        "Time(s)": 95
    },
    {
        "Altitude(m)": 702788.2121684965,
        "Argument of Periapsis(deg)": 0.00575500859955894,
        "Eccentricity": 0.0,
        "Inclination(deg)": 45.0,
        "Latitude(deg)": 7.408556294473946,
        "Longitude(deg)": -67.8068065555379,
        "Mean Anomaly(deg)": -190.5362905360097,
        "RAAN(deg)": 219.99456744010533,
        "Satellite Name": "Constellation 1 978",
        "Satellite Number": 978,
        "Semi-Major Axis(m)": 7083131.272910544,
        "Time(s)": 96
    },
    {
        "Altitude(m)": 702790.2649637387,
        "Argument of Periapsis(deg)": 0.005814956605804345,
        "Eccentricity": 0.0,
        "Inclination(deg)": 45.0,
        "Latitude(deg)": 7.365698702503242,
        "Longitude(deg)": -67.76733247302923,
        "Mean Anomaly(deg)": -190.47558939575976,
        "RAAN(deg)": 219.99451085093978,
        "Satellite Name": "Constellation 1 978",
        "Satellite Number": 978,
        "Semi-Major Axis(m)": 7083131.272910544,
        "Time(s)": 97
    },
    {
        "Altitude(m)": 702792.3381338794,
        "Argument of Periapsis(deg)": 0.00587490461204975,
        "Eccentricity": 0.0,
        "Inclination(deg)": 45.0,
        "Latitude(deg)": 7.322836837181172,
        "Longitude(deg)": -67.7278668073607,
        "Mean Anomaly(deg)": -190.41488825550982,
        "RAAN(deg)": 219.99445426177417,
        "Satellite Name": "Constellation 1 978",
        "Satellite Number": 978,
        "Semi-Major Axis(m)": 7083131.272910544,
        "Time(s)": 98
    },
    {
        "Altitude(m)": 702794.4316882371,
        "Argument of Periapsis(deg)": 0.005934852618295156,
        "Eccentricity": 0.0,
        "Inclination(deg)": 45.0,
        "Latitude(deg)": 7.279970724829739,
        "Longitude(deg)": -67.68840950862702,
        "Mean Anomaly(deg)": -190.35418711526,
        "RAAN(deg)": 219.9943976726086,
        "Satellite Name": "Constellation 1 978",
        "Satellite Number": 978,
        "Semi-Major Axis(m)": 7083131.272910544,
        "Time(s)": 99
    },
    {
        "Altitude(m)": 702796.5456360489,
        "Argument of Periapsis(deg)": 0.005994800624540561,
        "Eccentricity": 0.0,
        "Inclination(deg)": 45.0,
        "Latitude(deg)": 7.237100391754689,
        "Longitude(deg)": -67.64896052694083,
        "Mean Anomaly(deg)": -190.29348597501007,
        "RAAN(deg)": 219.99434108344303,
        "Satellite Name": "Constellation 1 978",
        "Satellite Number": 978,
        "Semi-Major Axis(m)": 7083131.272910544,
        "Time(s)": 100
    },
    {
        "Altitude(m)": 702798.6799864497,
        "Argument of Periapsis(deg)": 0.006054748630785968,
        "Eccentricity": 0.0,
        "Inclination(deg)": 45.0,
        "Latitude(deg)": 7.194225864245809,
        "Longitude(deg)": -67.60951981243267,
        "Mean Anomaly(deg)": -190.2327848347602,
        "RAAN(deg)": 219.99428449427748,
        "Satellite Name": "Constellation 1 978",
        "Satellite Number": 978,
        "Semi-Major Axis(m)": 7083131.272910544,
        "Time(s)": 101
    },
    {
        "Altitude(m)": 702800.8347485035,
        "Argument of Periapsis(deg)": 0.006114696637031373,
        "Eccentricity": 0.0,
        "Inclination(deg)": 45.0,
        "Latitude(deg)": 7.151347168577105,
        "Longitude(deg)": -67.57008731525119,
        "Mean Anomaly(deg)": -190.17208369451032,
        "RAAN(deg)": 219.99422790511193,
        "Satellite Name": "Constellation 1 978",
        "Satellite Number": 978,
        "Semi-Major Axis(m)": 7083131.272910544,
        "Time(s)": 102
    },
    {
        "Altitude(m)": 702803.0099311717,
        "Argument of Periapsis(deg)": 0.006174644643276778,
        "Eccentricity": 0.0,
        "Inclination(deg)": 45.0,
        "Latitude(deg)": 7.108464331006672,
        "Longitude(deg)": -67.5306629855625,
        "Mean Anomaly(deg)": -190.11138255426036,
        "RAAN(deg)": 219.99417131594632,
        "Satellite Name": "Constellation 1 978",
        "Satellite Number": 978,
        "Semi-Major Axis(m)": 7083131.272910544,
        "Time(s)": 103
    },
    {
        "Altitude(m)": 702805.2055433299,
        "Argument of Periapsis(deg)": 0.006234592649522184,
        "Eccentricity": 0.0,
        "Inclination(deg)": 45.0,
        "Latitude(deg)": 7.065577377777083,
        "Longitude(deg)": -67.49124694164777,
        "Mean Anomaly(deg)": -190.0506814140105,
        "RAAN(deg)": 219.99411472678077,
        "Satellite Name": "Constellation 1 978",
        "Satellite Number": 978,
        "Semi-Major Axis(m)": 7083131.272910544,
        "Time(s)": 104
    },
    {
        "Altitude(m)": 702807.4215937661,
        "Argument of Periapsis(deg)": 0.00629454065576759,
        "Eccentricity": 0.0,
        "Inclination(deg)": 45.0,
        "Latitude(deg)": 7.02268633511524,
        "Longitude(deg)": -67.45183879751441,
        "Mean Anomaly(deg)": -189.98998027376052,
        "RAAN(deg)": 219.9940581376152,
        "Satellite Name": "Constellation 1 978",
        "Satellite Number": 978,
        "Semi-Major Axis(m)": 7083131.272910544,
        "Time(s)": 105
    },
    {
        "Altitude(m)": 702809.6580911763,
        "Argument of Periapsis(deg)": 0.006354488662012995,
        "Eccentricity": 0.0,
        "Inclination(deg)": 45.0,
        "Latitude(deg)": 6.979791229232731,
        "Longitude(deg)": -67.41243867147861,
        "Mean Anomaly(deg)": -189.92927913351068,
        "RAAN(deg)": 219.99400154844963,
        "Satellite Name": "Constellation 1 978",
        "Satellite Number": 978,
        "Semi-Major Axis(m)": 7083131.272910544,
        "Time(s)": 106
    },
    {
        "Altitude(m)": 702811.9150441738,
        "Argument of Periapsis(deg)": 0.006414436668258401,
        "Eccentricity": 0.0,
        "Inclination(deg)": 45.0,
        "Latitude(deg)": 6.936892086325316,
        "Longitude(deg)": -67.37304651377652,
        "Mean Anomaly(deg)": -189.86857799326074,
        "RAAN(deg)": 219.99394495928408,
        "Satellite Name": "Constellation 1 978",
        "Satellite Number": 978,
        "Semi-Major Axis(m)": 7083131.272910544,
        "Time(s)": 107
    },
    {
        "Altitude(m)": 702814.1924612728,
        "Argument of Periapsis(deg)": 0.0064743846745038075,
        "Eccentricity": 0.0,
        "Inclination(deg)": 45.0,
        "Latitude(deg)": 6.893988932573964,
        "Longitude(deg)": -67.33366227466217,
        "Mean Anomaly(deg)": -189.8078768530109,
        "RAAN(deg)": 219.99388837011847,
        "Satellite Name": "Constellation 1 978",
        "Satellite Number": 978,
        "Semi-Major Axis(m)": 7083131.272910544,
        "Time(s)": 108
    },
    {
        "Altitude(m)": 702816.4903509015,
        "Argument of Periapsis(deg)": 0.0065343326807492125,
        "Eccentricity": 0.0,
        "Inclination(deg)": 45.0,
        "Latitude(deg)": 6.8510817941440765,
        "Longitude(deg)": -67.29428590440627,
        "Mean Anomaly(deg)": -189.74717571276096,
        "RAAN(deg)": 219.99383178095292,
        "Satellite Name": "Constellation 1 978",
        "Satellite Number": 978,
        "Semi-Major Axis(m)": 7083131.272910544,
        "Time(s)": 109
    },
    {
        "Altitude(m)": 702818.8087214052,
        "Argument of Periapsis(deg)": 0.0065942806869946176,
        "Eccentricity": 0.0,
        "Inclination(deg)": 45.0,
        "Latitude(deg)": 6.808170697186165,
        "Longitude(deg)": -67.25491735329697,
        "Mean Anomaly(deg)": -189.68647457251112,
        "RAAN(deg)": 219.99377519178736,
        "Satellite Name": "Constellation 1 978",
        "Satellite Number": 978,
        "Semi-Major Axis(m)": 7083131.272910544,
        "Time(s)": 110
    },
    {
        "Altitude(m)": 702821.1475810327,
        "Argument of Periapsis(deg)": 0.006654228693240024,
        "Eccentricity": 0.0,
        "Inclination(deg)": 45.0,
        "Latitude(deg)": 6.765255667835577,
        "Longitude(deg)": -67.21555673973629,
        "Mean Anomaly(deg)": -189.62577343226116,
        "RAAN(deg)": 219.99371860262178,
        "Satellite Name": "Constellation 1 978",
        "Satellite Number": 978,
        "Semi-Major Axis(m)": 7083131.272910544,
        "Time(s)": 111
    },
    {
        "Altitude(m)": 702823.5069379414,
        "Argument of Periapsis(deg)": 0.006714176699485429,
        "Eccentricity": 0.0,
        "Inclination(deg)": 45.0,
        "Latitude(deg)": 6.722336732212999,
        "Longitude(deg)": -67.17620367785214,
        "Mean Anomaly(deg)": -189.56507229201134,
        "RAAN(deg)": 219.99366201345623,
        "Satellite Name": "Constellation 1 978",
        "Satellite Number": 978,
        "Semi-Major Axis(m)": 7083131.272910544,
        "Time(s)": 112
    },
    {
        "Altitude(m)": 702825.8868002084,
        "Argument of Periapsis(deg)": 0.006774124705730835,
        "Eccentricity": 0.0,
        "Inclination(deg)": 45.0,
        "Latitude(deg)": 6.679413916423997,
        "Longitude(deg)": -67.13685828608025,
        "Mean Anomaly(deg)": -189.50437115176135,
        "RAAN(deg)": 219.99360542429068,
        "Satellite Name": "Constellation 1 978",
        "Satellite Number": 978,
        "Semi-Major Axis(m)": 7083131.272910544,
        "Time(s)": 113
    }
]